STARLINK-30353
1 58113U 23161S   25354.82182769 -.00000248  00000+0  37537-5 0  9997
2 58113  53.1600 172.0775 0001310  75.1238 284.9907 15.30187788122344